{"type": "FeatureCollection", "features": [ {"type": "Feature", "properties": {"norad_id": 67093, "name": "STARLINK-35784", "group": "last-30-days", "lat": 46.327866535057126, "lon": 5.013674579802887, "alt_km": 351.8172030794076, "timestamp": "2025-12-27T16:33:28.976155+00:00", "meta": {"OBJECT_NAME": "STARLINK-35784", "OBJECT_ID": "2025-298U", "EPOCH": "2025-12-27T12:00:02.000160", "MEAN_MOTION": 15.72252343, "ECCENTRICITY": 0.0003468, "INCLINATION": 69.9994, "RA_OF_ASC_NODE": 207.9776, "ARG_OF_PERICENTER": 273.6196, "MEAN_ANOMALY": 221.7512, "EPHEMERIS_TYPE": 0, "CLASSIFICATION_TYPE": "U", "NORAD_CAT_ID": 67093, "ELEMENT_SET_NO": 999, "REV_AT_EPOCH": 335, "BSTAR": -0.01506, "MEAN_MOTION_DOT": -0.01756648, "MEAN_MOTION_DDOT": 0}, "tle": {"line1": "1 67093U 25298U   25361.50002315 -.01756648  00000+0 -15060-1 0  9995", "line2": "2 67093  69.9994 207.9776 0003468 273.6196 221.7512 15.72252343  3351"}}, "geometry": {"type": "Point", "coordinates": [5.013674579802887, 46.327866535057126]}}, {"type": "Feature", "properties": {"norad_id": 67094, "name": "STARLINK-36202", "group": "last-30-days", "lat": 44.52217352446649, "lon": 6.44924463808389, "alt_km": 351.989489844128, "timestamp": "2025-12-27T16:33:28.976165+00:00", "meta": {"OBJECT_NAME": "STARLINK-36202", "OBJECT_ID": "2025-298V", "EPOCH": "2025-12-27T12:00:02.000160", "MEAN_MOTION": 15.72190091, "ECCENTRICITY": 0.0003349, "INCLINATION": 69.9995, "RA_OF_ASC_NODE": 207.9753, "ARG_OF_PERICENTER": 271.424, "MEAN_ANOMALY": 226.0431, "EPHEMERIS_TYPE": 0, "CLASSIFICATION_TYPE": "U", "NORAD_CAT_ID": 67094, "ELEMENT_SET_NO": 999, "REV_AT_EPOCH": 335, "BSTAR": -0.014332, "MEAN_MOTION_DOT": -0.01677528, "MEAN_MOTION_DDOT": 0}, "tle": {"line1": "1 67094U 25298V   25361.50002315 -.01677528  00000+0 -14332-1 0  9996", "line2": "2 67094  69.9995 207.9753 0003349 271.4240 226.0431 15.72190091  3351"}}, "geometry": {"type": "Point", "coordinates": [6.44924463808389, 44.52217352446649]}}, {"type": "Feature", "properties": {"norad_id": 67095, "name": "STARLINK-36227", "group": "last-30-days", "lat": 42.757802362743966, "lon": 7.7559436156668875, "alt_km": 352.24997995000194, "timestamp": "2025-12-27T16:33:28.976175+00:00", "meta": {"OBJECT_NAME": "STARLINK-36227", "OBJECT_ID": "2025-298W", "EPOCH": "2025-12-27T12:00:02.000160", "MEAN_MOTION": 15.7218486, "ECCENTRICITY": 0.0003419, "INCLINATION": 69.9996, "RA_OF_ASC_NODE": 207.9728, "ARG_OF_PERICENTER": 271.3735, "MEAN_ANOMALY": 228.0977, "EPHEMERIS_TYPE": 0, "CLASSIFICATION_TYPE": "U", "NORAD_CAT_ID": 67095, "ELEMENT_SET_NO": 999, "REV_AT_EPOCH": 329, "BSTAR": -0.0143, "MEAN_MOTION_DOT": -0.01673936, "MEAN_MOTION_DDOT": 0}, "tle": {"line1": "1 67095U 25298W   25361.50002315 -.01673936  00000+0 -14300-1 0  9991", "line2": "2 67095  69.9996 207.9728 0003419 271.3735 228.0977 15.72184860  3298"}}, "geometry": {"type": "Point", "coordinates": [7.7559436156668875, 42.757802362743966]}}, {"type": "Feature", "properties": {"norad_id": 67096, "name": "STARLINK-36228", "group": "last-30-days", "lat": 41.11701075445532, "lon": 8.897370535593401, "alt_km": 352.4951808850592, "timestamp": "2025-12-27T16:33:28.976185+00:00", "meta": {"OBJECT_NAME": "STARLINK-36228", "OBJECT_ID": "2025-298X", "EPOCH": "2025-12-27T12:00:02.000160", "MEAN_MOTION": 15.72190038, "ECCENTRICITY": 0.0003493, "INCLINATION": 69.9996, "RA_OF_ASC_NODE": 207.9709, "ARG_OF_PERICENTER": 271.9827, "MEAN_ANOMALY": 229.3319, "EPHEMERIS_TYPE": 0, "CLASSIFICATION_TYPE": "U", "NORAD_CAT_ID": 67096, "ELEMENT_SET_NO": 999, "REV_AT_EPOCH": 329, "BSTAR": -0.014322, "MEAN_MOTION_DOT": -0.01676614, "MEAN_MOTION_DDOT": 0}, "tle": {"line1": "1 67096U 25298X   25361.50002315 -.01676614  00000+0 -14322-1 0  9992", "line2": "2 67096  69.9996 207.9709 0003493 271.9827 229.3319 15.72190038  3296"}}, "geometry": {"type": "Point", "coordinates": [8.897370535593401, 41.11701075445532]}}, {"type": "Feature", "properties": {"norad_id": 67097, "name": "STARLINK-36222", "group": "last-30-days", "lat": 39.301527382711505, "lon": 10.086540200725906, "alt_km": 352.44597644370333, "timestamp": "2025-12-27T16:33:28.976195+00:00", "meta": {"OBJECT_NAME": "STARLINK-36222", "OBJECT_ID": "2025-298Y", "EPOCH": "2025-12-27T12:00:02.000160", "MEAN_MOTION": 15.72315724, "ECCENTRICITY": 0.0003501, "INCLINATION": 69.9995, "RA_OF_ASC_NODE": 207.9681, "ARG_OF_PERICENTER": 265.1824, "MEAN_ANOMALY": 238.1149, "EPHEMERIS_TYPE": 0, "CLASSIFICATION_TYPE": "U", "NORAD_CAT_ID": 67097, "ELEMENT_SET_NO": 999, "REV_AT_EPOCH": 329, "BSTAR": -0.016409, "MEAN_MOTION_DOT": -0.01897758, "MEAN_MOTION_DDOT": 0}, "tle": {"line1": "1 67097U 25298Y   25361.50002315 -.01897758  00000+0 -16409-1 0  9995", "line2": "2 67097  69.9995 207.9681 0003501 265.1824 238.1149 15.72315724  3297"}}, "geometry": {"type": "Point", "coordinates": [10.086540200725906, 39.301527382711505]}}, {"type": "Feature", "properties": {"norad_id": 67098, "name": "STARLINK-36205", "group": "last-30-days", "lat": 37.47926540205422, "lon": 11.21328735795966, "alt_km": 352.88316709167793, "timestamp": "2025-12-27T16:33:28.976205+00:00", "meta": {"OBJECT_NAME": "STARLINK-36205", "OBJECT_ID": "2025-298Z", "EPOCH": "2025-12-27T12:00:02.000160", "MEAN_MOTION": 15.7217591, "ECCENTRICITY": 0.0003318, "INCLINATION": 69.9996, "RA_OF_ASC_NODE": 207.9659, "ARG_OF_PERICENTER": 271.0881, "MEAN_ANOMALY": 234.2877, "EPHEMERIS_TYPE": 0, "CLASSIFICATION_TYPE": "U", "NORAD_CAT_ID": 67098, "ELEMENT_SET_NO": 999, "REV_AT_EPOCH": 335, "BSTAR": -0.01433, "MEAN_MOTION_DOT": -0.01676295, "MEAN_MOTION_DDOT": 0}, "tle": {"line1": "1 67098U 25298Z   25361.50002315 -.01676295  00000+0 -14330-1 0  9998", "line2": "2 67098  69.9996 207.9659 0003318 271.0881 234.2877 15.72175910  3352"}}, "geometry": {"type": "Point", "coordinates": [11.21328735795966, 37.47926540205422]}}, {"type": "Feature", "properties": {"norad_id": 67099, "name": "STARLINK-36193", "group": "last-30-days", "lat": 62.62758029471045, "lon": -17.24339419297851, "alt_km": 365.55831136915094, "timestamp": "2025-12-27T16:33:28.976216+00:00", "meta": {"OBJECT_NAME": "STARLINK-36193", "OBJECT_ID": "2025-298AA", "EPOCH": "2025-12-27T12:00:02.000160", "MEAN_MOTION": 15.67078038, "ECCENTRICITY": 0.0003334, "INCLINATION": 69.9997, "RA_OF_ASC_NODE": 207.9976, "ARG_OF_PERICENTER": 268.6289, "MEAN_ANOMALY": 209.8075, "EPHEMERIS_TYPE": 0, "CLASSIFICATION_TYPE": "U", "NORAD_CAT_ID": 67099, "ELEMENT_SET_NO": 999, "REV_AT_EPOCH": 329, "BSTAR": -0.025908, "MEAN_MOTION_DOT": -0.02433952, "MEAN_MOTION_DDOT": 0}, "tle": {"line1": "1 67099U 25298AA  25361.50002315 -.02433952  00000+0 -25908-1 0  9994", "line2": "2 67099  69.9997 207.9976 0003334 268.6289 209.8075 15.67078038  3296"}}, "geometry": {"type": "Point", "coordinates": [-17.24339419297851, 62.62758029471045]}}, {"type": "Feature", "properties": {"norad_id": 67100, "name": "STARLINK-36215", "group": "last-30-days", "lat": 32.42567380104073, "lon": 14.044954382848033, "alt_km": 353.5121262925977, "timestamp": "2025-12-27T16:33:28.976228+00:00", "meta": {"OBJECT_NAME": "STARLINK-36215", "OBJECT_ID": "2025-298AB", "EPOCH": "2025-12-27T12:00:02.000160", "MEAN_MOTION": 15.72186459, "ECCENTRICITY": 0.0003331, "INCLINATION": 69.9992, "RA_OF_ASC_NODE": 207.959, "ARG_OF_PERICENTER": 271.3705, "MEAN_ANOMALY": 239.5554, "EPHEMERIS_TYPE": 0, "CLASSIFICATION_TYPE": "U", "NORAD_CAT_ID": 67100, "ELEMENT_SET_NO": 999, "REV_AT_EPOCH": 335, "BSTAR": -0.014315, "MEAN_MOTION_DOT": -0.01675487, "MEAN_MOTION_DDOT": 0}, "tle": {"line1": "1 67100U 25298AB  25361.50002315 -.01675487  00000+0 -14315-1 0  9997", "line2": "2 67100  69.9992 207.9590 0003331 271.3705 239.5554 15.72186459  3359"}}, "geometry": {"type": "Point", "coordinates": [14.044954382848033, 32.42567380104073]}}, {"type": "Feature", "properties": {"norad_id": 67101, "name": "STARLINK-36200", "group": "last-30-days", "lat": 35.836630736055476, "lon": 12.177484387707022, "alt_km": 353.02025361867163, "timestamp": "2025-12-27T16:33:28.976246+00:00", "meta": {"OBJECT_NAME": "STARLINK-36200", "OBJECT_ID": "2025-298AC", "EPOCH": "2025-12-27T12:00:02.000160", "MEAN_MOTION": 15.72181581, "ECCENTRICITY": 0.0003342, "INCLINATION": 69.9996, "RA_OF_ASC_NODE": 207.964, "ARG_OF_PERICENTER": 269.0078, "MEAN_ANOMALY": 238.1796, "EPHEMERIS_TYPE": 0, "CLASSIFICATION_TYPE": "U", "NORAD_CAT_ID": 67101, "ELEMENT_SET_NO": 999, "REV_AT_EPOCH": 335, "BSTAR": -0.014318, "MEAN_MOTION_DOT": -0.01675435, "MEAN_MOTION_DDOT": 0}, "tle": {"line1": "1 67101U 25298AC  25361.50002315 -.01675435  00000+0 -14318-1 0  9994", "line2": "2 67101  69.9996 207.9640 0003342 269.0078 238.1796 15.72181581  3353"}}, "geometry": {"type": "Point", "coordinates": [12.177484387707022, 35.836630736055476]}}, {"type": "Feature", "properties": {"norad_id": 67102, "name": "STARLINK-36255", "group": "last-30-days", "lat": 36.08770234672838, "lon": -83.4234022836043, "alt_km": 342.44954727587265, "timestamp": "2025-12-27T16:33:28.976271+00:00", "meta": {"OBJECT_NAME": "STARLINK-36255", "OBJECT_ID": "2025-299A", "EPOCH": "2025-12-27T12:00:02.000160", "MEAN_MOTION": 15.74994512, "ECCENTRICITY": 0.0001877, "INCLINATION": 42.9991, "RA_OF_ASC_NODE": 226.2632, "ARG_OF_PERICENTER": 266.5889, "MEAN_ANOMALY": 155.473, "EPHEMERIS_TYPE": 0, "CLASSIFICATION_TYPE": "U", "NORAD_CAT_ID": 67102, "ELEMENT_SET_NO": 999, "REV_AT_EPOCH": 318, "BSTAR": -0.01432, "MEAN_MOTION_DOT": -0.01908446, "MEAN_MOTION_DDOT": 0}, "tle": {"line1": "1 67102U 25299A   25361.50002315 -.01908446  00000+0 -14320-1 0  9990", "line2": "2 67102  42.9991 226.2632 0001877 266.5889 155.4730 15.74994512  3186"}}, "geometry": {"type": "Point", "coordinates": [-83.4234022836043, 36.08770234672838]}}]}